start=new Date('2023-04-19T00:00:00.000Z').valueOf();
sats=[{"RA_OF_ASC_NODE":"339.7039","MEAN_MOTION":"15.08844251","CLASSIFICATION_TYPE":"U","PERIOD":"95.437","RCS_SIZE":"LARGE","MEAN_MOTION_DDOT":"0.0000000000000","INCLINATION":"53.2171","DECAY_DATE":null,"GP_ID":"230332020","CENTER_NAME":"EARTH","ARG_OF_PERICENTER":"78.9740","COUNTRY_CODE":"US","REV_AT_EPOCH":"6740","EPOCH":"2023-04-18T16:27:52.654176","ELEMENT_SET_NO":"999","APOAPSIS":"540.469","NORAD_CAT_ID":"51460","MEAN_ANOMALY":"281.1372","REF_FRAME":"TEME","OBJECT_ID":"2022-010E","MEAN_ELEMENT_THEORY":"SGP4","ECCENTRICITY":"0.00010650","SITE":"AFETR","OBJECT_NAME":"STARLINK-3167","SEMIMAJOR_AXIS":"6917.867","PERIAPSIS":"538.996","BSTAR":"0.00009968800000","TIME_SYSTEM":"UTC","TLE_LINE2":"2 51460  53.2171 339.7039 0001065  78.9740 281.1372 15.08844251 67407","OBJECT_TYPE":"PAYLOAD","FILE":"3889987","LAUNCH_DATE":"2022-02-03","MEAN_MOTION_DOT":"0.00001299","TLE_LINE1":"1 51460U 22010E   23108.68602609  .00001299  00000-0  99688-4 0  9997","EPHEMERIS_TYPE":"0"},{"MEAN_MOTION":"15.08854380","RA_OF_ASC_NODE":"338.7265","PERIOD":"95.437","CLASSIFICATION_TYPE":"U","INCLINATION":"53.2188","RCS_SIZE":"LARGE","MEAN_MOTION_DDOT":"0.0000000000000","DECAY_DATE":null,"GP_ID":"230307774","REV_AT_EPOCH":"6793","COUNTRY_CODE":"US","ARG_OF_PERICENTER":"91.6151","CENTER_NAME":"EARTH","ELEMENT_SET_NO":"999","EPOCH":"2023-04-18T21:40:31.662336","NORAD_CAT_ID":"51461","APOAPSIS":"540.530","MEAN_ELEMENT_THEORY":"SGP4","OBJECT_ID":"2022-010F","REF_FRAME":"TEME","MEAN_ANOMALY":"268.4978","PERIAPSIS":"538.873","SEMIMAJOR_AXIS":"6917.836","OBJECT_NAME":"STARLINK-3181","SITE":"AFETR","ECCENTRICITY":"0.00011980","BSTAR":"0.00022511000000","FILE":"3889929","OBJECT_TYPE":"PAYLOAD","TIME_SYSTEM":"UTC","TLE_LINE2":"2 51461  53.2188 338.7265 0001198  91.6151 268.4978 15.08854380 67933","TLE_LINE1":"1 51461U 22010F   23108.90314424  .00003298  00000-0  22511-3 0  9999","MEAN_MOTION_DOT":"0.00003298","LAUNCH_DATE":"2022-02-03","EPHEMERIS_TYPE":"0"},{"BSTAR":"0.00029084000000","OBJECT_TYPE":"PAYLOAD","FILE":"3889684","TIME_SYSTEM":"UTC","TLE_LINE2":"2 51462  53.2169 342.6176 0001138  92.8970 267.2153 15.08846451 67307","TLE_LINE1":"1 51462U 22010G   23108.03930352  .00004345  00000-0  29084-3 0  9994","LAUNCH_DATE":"2022-02-03","MEAN_MOTION_DOT":"0.00004345","EPHEMERIS_TYPE":"0","REF_FRAME":"TEME","MEAN_ELEMENT_THEORY":"SGP4","OBJECT_ID":"2022-010G","MEAN_ANOMALY":"267.2153","PERIAPSIS":"538.938","SITE":"AFETR","ECCENTRICITY":"0.00011380","OBJECT_NAME":"STARLINK-3166","SEMIMAJOR_AXIS":"6917.861","DECAY_DATE":null,"GP_ID":"230298205","COUNTRY_CODE":"US","REV_AT_EPOCH":"6730","CENTER_NAME":"EARTH","ARG_OF_PERICENTER":"92.8970","ELEMENT_SET_NO":"999","EPOCH":"2023-04-18T00:56:35.824128","NORAD_CAT_ID":"51462","APOAPSIS":"540.513","MEAN_MOTION":"15.08846451","RA_OF_ASC_NODE":"342.6176","PERIOD":"95.437","CLASSIFICATION_TYPE":"U","INCLINATION":"53.2169","RCS_SIZE":"LARGE","MEAN_MOTION_DDOT":"0.0000000000000"},{"MEAN_ELEMENT_THEORY":"SGP4","OBJECT_ID":"2022-010H","REF_FRAME":"TEME","MEAN_ANOMALY":"263.0641","PERIAPSIS":"538.801","SEMIMAJOR_AXIS":"6917.878","ECCENTRICITY":"0.00013620","SITE":"AFETR","OBJECT_NAME":"STARLINK-3419","BSTAR":"0.00010735000000","FILE":"3889929","OBJECT_TYPE":"PAYLOAD","TIME_SYSTEM":"UTC","TLE_LINE2":"2 51463  53.2182 338.5661 0001362  97.0506 263.0641 15.08840644 67884","TLE_LINE1":"1 51463U 22010H   23108.93994747  .00001421  00000-0  10735-3 0  9997","MEAN_MOTION_DOT":"0.00001421","LAUNCH_DATE":"2022-02-03","EPHEMERIS_TYPE":"0","MEAN_MOTION":"15.08840644","RA_OF_ASC_NODE":"338.5661","PERIOD":"95.438","CLASSIFICATION_TYPE":"U","RCS_SIZE":"LARGE","INCLINATION":"53.2182","MEAN_MOTION_DDOT":"0.0000000000000","GP_ID":"230307786","DECAY_DATE":null,"REV_AT_EPOCH":"6788","COUNTRY_CODE":"US","CENTER_NAME":"EARTH","ARG_OF_PERICENTER":"97.0506","ELEMENT_SET_NO":"999","EPOCH":"2023-04-18T22:33:31.461408","NORAD_CAT_ID":"51463","APOAPSIS":"540.686"},{"REF_FRAME":"TEME","MEAN_ELEMENT_THEORY":"SGP4","OBJECT_ID":"2022-010J","MEAN_ANOMALY":"275.4381","PERIAPSIS":"538.907","SITE":"AFETR","ECCENTRICITY":"0.00011710","OBJECT_NAME":"STARLINK-3189","SEMIMAJOR_AXIS":"6917.852","BSTAR":"0.00046235000000","OBJECT_TYPE":"PAYLOAD","FILE":"3889929","TLE_LINE2":"2 51464  53.2166 338.7773 0001171  84.6745 275.4381 15.08849232 67888","TIME_SYSTEM":"UTC","TLE_LINE1":"1 51464U 22010J   23108.89210509  .00007080  00000-0  46235-3 0  9991","LAUNCH_DATE":"2022-02-03","MEAN_MOTION_DOT":"0.00007080","EPHEMERIS_TYPE":"0","MEAN_MOTION":"15.08849232","RA_OF_ASC_NODE":"338.7773","PERIOD":"95.437","CLASSIFICATION_TYPE":"U","RCS_SIZE":"LARGE","INCLINATION":"53.2166","MEAN_MOTION_DDOT":"0.0000000000000","DECAY_DATE":null,"GP_ID":"230307778","COUNTRY_CODE":"US","REV_AT_EPOCH":"6788","ARG_OF_PERICENTER":"84.6745","CENTER_NAME":"EARTH","ELEMENT_SET_NO":"999","EPOCH":"2023-04-18T21:24:37.879776","NORAD_CAT_ID":"51464","APOAPSIS":"540.527"},{"APOAPSIS":"540.206","NORAD_CAT_ID":"51465","EPOCH":"2023-04-18T16:33:10.862784","ELEMENT_SET_NO":"999","CENTER_NAME":"EARTH","ARG_OF_PERICENTER":"81.9299","COUNTRY_CODE":"US","REV_AT_EPOCH":"6790","DECAY_DATE":null,"GP_ID":"230330775","INCLINATION":"53.2164","RCS_SIZE":"LARGE","MEAN_MOTION_DDOT":"0.0000000000000","CLASSIFICATION_TYPE":"U","PERIOD":"95.438","RA_OF_ASC_NODE":"339.6864","MEAN_MOTION":"15.08840559","EPHEMERIS_TYPE":"0","LAUNCH_DATE":"2022-02-03","MEAN_MOTION_DOT":"0.00003042","TLE_LINE1":"1 51465U 22010K   23108.68970906  .00003042  00000-0  20911-3 0  9990","TIME_SYSTEM":"UTC","TLE_LINE2":"2 51465  53.2164 339.6864 0000668  81.9299 278.1769 15.08840559 67908","OBJECT_TYPE":"PAYLOAD","FILE":"3889987","BSTAR":"0.00020911000000","OBJECT_NAME":"STARLINK-3401","SITE":"AFETR","ECCENTRICITY":"0.00006680","SEMIMAJOR_AXIS":"6917.879","PERIAPSIS":"539.282","MEAN_ANOMALY":"278.1769","REF_FRAME":"TEME","MEAN_ELEMENT_THEORY":"SGP4","OBJECT_ID":"2022-010K"},{"LAUNCH_DATE":"2022-02-03","MEAN_MOTION_DOT":"0.00002947","TLE_LINE1":"1 51467U 22010M   23108.07514496  .00002947  00000-0  20316-3 0  9995","EPHEMERIS_TYPE":"0","BSTAR":"0.00020316000000","TIME_SYSTEM":"UTC","TLE_LINE2":"2 51467  53.2171 342.4468 0001034 104.0742 256.0365 15.08844866 67001","OBJECT_TYPE":"PAYLOAD","FILE":"3889684","OBJECT_NAME":"STARLINK-3178","SITE":"AFETR","ECCENTRICITY":"0.00010340","SEMIMAJOR_AXIS":"6917.866","PERIAPSIS":"539.015","MEAN_ANOMALY":"256.0365","REF_FRAME":"TEME","OBJECT_ID":"2022-010M","MEAN_ELEMENT_THEORY":"SGP4","EPOCH":"2023-04-18T01:48:12.524544","ELEMENT_SET_NO":"999","APOAPSIS":"540.446","NORAD_CAT_ID":"51467","DECAY_DATE":null,"GP_ID":"230298705","CENTER_NAME":"EARTH","ARG_OF_PERICENTER":"104.0742","COUNTRY_CODE":"US","REV_AT_EPOCH":"6700","RCS_SIZE":"LARGE","INCLINATION":"53.2171","MEAN_MOTION_DDOT":"0.0000000000000","RA_OF_ASC_NODE":"342.4468","MEAN_MOTION":"15.08844866","CLASSIFICATION_TYPE":"U","PERIOD":"95.437"},{"MEAN_ANOMALY":"249.9057","OBJECT_ID":"2022-010N","MEAN_ELEMENT_THEORY":"SGP4","REF_FRAME":"TEME","SEMIMAJOR_AXIS":"6917.821","OBJECT_NAME":"STARLINK-3174","SITE":"AFETR","ECCENTRICITY":"0.00012580","PERIAPSIS":"538.815","TLE_LINE2":"2 51468  53.2175 339.7267 0001258 110.2070 249.9057 15.08859588 67098","TIME_SYSTEM":"UTC","FILE":"3889987","OBJECT_TYPE":"PAYLOAD","BSTAR":"0.00055447000000","EPHEMERIS_TYPE":"0","MEAN_MOTION_DOT":"0.00008552","LAUNCH_DATE":"2022-02-03","TLE_LINE1":"1 51468U 22010N   23108.68330794  .00008552  00000-0  55447-3 0  9991","CLASSIFICATION_TYPE":"U","PERIOD":"95.436","RA_OF_ASC_NODE":"339.7267","MEAN_MOTION":"15.08859588","MEAN_MOTION_DDOT":"0.0000000000000","RCS_SIZE":"LARGE","INCLINATION":"53.2175","CENTER_NAME":"EARTH","ARG_OF_PERICENTER":"110.2070","REV_AT_EPOCH":"6709","COUNTRY_CODE":"US","DECAY_DATE":null,"GP_ID":"230331773","APOAPSIS":"540.556","NORAD_CAT_ID":"51468","EPOCH":"2023-04-18T16:23:57.806016","ELEMENT_SET_NO":"999"},{"REF_FRAME":"TEME","MEAN_ELEMENT_THEORY":"SGP4","OBJECT_ID":"2022-010P","MEAN_ANOMALY":"256.9388","PERIAPSIS":"539.042","OBJECT_NAME":"STARLINK-3182","SITE":"AFETR","ECCENTRICITY":"0.00009940","SEMIMAJOR_AXIS":"6917.865","BSTAR":"0.00016145000000","OBJECT_TYPE":"PAYLOAD","FILE":"3889684","TIME_SYSTEM":"UTC","TLE_LINE2":"2 51469  53.2167 342.6268 0000994 103.1716 256.9388 15.08845119 67302","TLE_LINE1":"1 51469U 22010P   23108.03466359  .00002283  00000-0  16145-3 0  9995","LAUNCH_DATE":"2022-02-03","MEAN_MOTION_DOT":"0.00002283","EPHEMERIS_TYPE":"0","MEAN_MOTION":"15.08845119","RA_OF_ASC_NODE":"342.6268","PERIOD":"95.437","CLASSIFICATION_TYPE":"U","RCS_SIZE":"LARGE","INCLINATION":"53.2167","MEAN_MOTION_DDOT":"0.0000000000000","DECAY_DATE":null,"GP_ID":"230299207","COUNTRY_CODE":"US","REV_AT_EPOCH":"6730","CENTER_NAME":"EARTH","ARG_OF_PERICENTER":"103.1716","ELEMENT_SET_NO":"999","EPOCH":"2023-04-18T00:49:54.934176","NORAD_CAT_ID":"51469","APOAPSIS":"540.417"},{"PERIOD":"94.442","CLASSIFICATION_TYPE":"U","MEAN_MOTION":"15.24741201","RA_OF_ASC_NODE":"326.5745","INCLINATION":"53.2256","RCS_SIZE":"LARGE","MEAN_MOTION_DDOT":"0.0000000000000","COUNTRY_CODE":"US","REV_AT_EPOCH":"6760","CENTER_NAME":"EARTH","ARG_OF_PERICENTER":"166.1518","DECAY_DATE":null,"GP_ID":"230331275","NORAD_CAT_ID":"51471","APOAPSIS":"495.719","ELEMENT_SET_NO":"999","EPOCH":"2023-04-18T20:53:18.248640","REF_FRAME":"TEME","MEAN_ELEMENT_THEORY":"SGP4","OBJECT_ID":"2022-010R","MEAN_ANOMALY":"193.9648","PERIAPSIS":"487.411","SITE":"AFETR","OBJECT_NAME":"STARLINK-3165","ECCENTRICITY":"0.00060470","SEMIMAJOR_AXIS":"6869.700","OBJECT_TYPE":"PAYLOAD","FILE":"3889987","TIME_SYSTEM":"UTC","TLE_LINE2":"2 51471  53.2256 326.5745 0006047 166.1518 193.9648 15.24741201 67606","BSTAR":"0.00366350000000","EPHEMERIS_TYPE":"0","TLE_LINE1":"1 51471U 22010R   23108.87035010  .00092753  00000-0  36635-2 0  9992","LAUNCH_DATE":"2022-02-03","MEAN_MOTION_DOT":"0.00092753"}];
